[{"OBJECT_NAME":"STARLINK-2424","OBJECT_ID":"2021-018AZ","EPOCH":"2026-03-09T17:23:54.809952","MEAN_MOTION":15.30202261,"ECCENTRICITY":0.0001251,"INCLINATION":53.1586,"RA_OF_ASC_NODE":244.8681,"ARG_OF_PERICENTER":87.0347,"MEAN_ANOMALY":273.0797,"EPHEMERIS_TYPE":0,"CLASSIFICATION_TYPE":"U","NORAD_CAT_ID":47834,"ELEMENT_SET_NO":999,"REV_AT_EPOCH":27675,"BSTAR":0.00013894922,"MEAN_MOTION_DOT":3.758e-5,"MEAN_MOTION_DDOT":0},{"OBJECT_NAME":"JINJUSAT-1B","OBJECT_ID":"2025-052A","EPOCH":"2026-03-09T15:55:38.242848","MEAN_MOTION":15.30194857,"ECCENTRICITY":0.00055504,"INCLINATION":97.4113,"RA_OF_ASC_NODE":325.4613,"ARG_OF_PERICENTER":82.193,"MEAN_ANOMALY":277.9941,"EPHEMERIS_TYPE":0,"CLASSIFICATION_TYPE":"U","NORAD_CAT_ID":63210,"ELEMENT_SET_NO":999,"REV_AT_EPOCH":5486,"BSTAR":0.00068430401,"MEAN_MOTION_DOT":0.00019955,"MEAN_MOTION_DDOT":0}]
